{"type": "FeatureCollection", "features": [ {"type": "Feature", "properties": {"norad_id": 66697, "name": "IRIDE FM3", "group": "last-30-days", "lat": -15.581336131806948, "lon": -111.23173723666251, "alt_km": 515.4703398335769, "timestamp": "2025-12-25T07:00:32.763098+00:00", "meta": {"OBJECT_NAME": "IRIDE FM3", "OBJECT_ID": "2025-276AH", "EPOCH": "2025-12-24T20:39:33.776640", "MEAN_MOTION": 15.18202691, "ECCENTRICITY": 0.00014116, "INCLINATION": 97.4386, "RA_OF_ASC_NODE": 70.4322, "ARG_OF_PERICENTER": 148.1109, "MEAN_ANOMALY": 212.0211, "EPHEMERIS_TYPE": 0, "CLASSIFICATION_TYPE": "U", "NORAD_CAT_ID": 66697, "ELEMENT_SET_NO": 999, "REV_AT_EPOCH": 396, "BSTAR": 0.00054831047, "MEAN_MOTION_DOT": 0.00011155, "MEAN_MOTION_DDOT": 0}, "tle": {"line1": "1 66697U 25276AH  25358.86080760  .00011155  00000+0  54831-3 0  9990", "line2": "2 66697  97.4386  70.4322 0001411 148.1109 212.0211 15.18202691  3964"}}, "geometry": {"type": "Point", "coordinates": [-111.23173723666251, -15.581336131806948]}}, {"type": "Feature", "properties": {"norad_id": 66698, "name": "IRIDE FM4", "group": "last-30-days", "lat": 60.261288847443346, "lon": -95.95470842197207, "alt_km": 509.45251642945095, "timestamp": "2025-12-25T07:00:32.763108+00:00", "meta": {"OBJECT_NAME": "IRIDE FM4", "OBJECT_ID": "2025-276AJ", "EPOCH": "2025-12-24T08:00:03.000384", "MEAN_MOTION": 15.17393336, "ECCENTRICITY": 0.00028168, "INCLINATION": 97.4387, "RA_OF_ASC_NODE": 69.8832, "ARG_OF_PERICENTER": 252.4343, "MEAN_ANOMALY": 33.0288, "EPHEMERIS_TYPE": 0, "CLASSIFICATION_TYPE": "U", "NORAD_CAT_ID": 66698, "ELEMENT_SET_NO": 999, "REV_AT_EPOCH": 130, "BSTAR": -0.0025918163, "MEAN_MOTION_DOT": -0.00051456, "MEAN_MOTION_DDOT": 0}, "tle": {"line1": "1 66698U 25276AJ  25358.33336806 -.00051456  00000+0 -25918-2 0  9991", "line2": "2 66698  97.4387  69.8832 0002816 252.4343  33.0288 15.17393336  1300"}}, "geometry": {"type": "Point", "coordinates": [-95.95470842197207, 60.261288847443346]}}, {"type": "Feature", "properties": {"norad_id": 66699, "name": "IRIDE FM5", "group": "last-30-days", "lat": 58.6779748644265, "lon": -96.76993924648177, "alt_km": 509.24915538497225, "timestamp": "2025-12-25T07:00:32.763122+00:00", "meta": {"OBJECT_NAME": "IRIDE FM5", "OBJECT_ID": "2025-276AK", "EPOCH": "2025-12-24T20:59:02.430816", "MEAN_MOTION": 15.17420412, "ECCENTRICITY": 0.00032012, "INCLINATION": 97.44, "RA_OF_ASC_NODE": 70.4194, "ARG_OF_PERICENTER": 247.0373, "MEAN_ANOMALY": 113.0523, "EPHEMERIS_TYPE": 0, "CLASSIFICATION_TYPE": "U", "NORAD_CAT_ID": 66699, "ELEMENT_SET_NO": 999, "REV_AT_EPOCH": 396, "BSTAR": 0.00056256383, "MEAN_MOTION_DOT": 0.00011193, "MEAN_MOTION_DDOT": 0}, "tle": {"line1": "1 66699U 25276AK  25358.87433369  .00011193  00000+0  56256-3 0  9995", "line2": "2 66699  97.4400  70.4194 0003201 247.0373 113.0523 15.17420412  3969"}}, "geometry": {"type": "Point", "coordinates": [-96.76993924648177, 58.6779748644265]}}, {"type": "Feature", "properties": {"norad_id": 66700, "name": "IRIDE FM6", "group": "last-30-days", "lat": -19.946003445572973, "lon": -111.84922831652683, "alt_km": 513.2001654363366, "timestamp": "2025-12-25T07:00:32.763133+00:00", "meta": {"OBJECT_NAME": "IRIDE FM6", "OBJECT_ID": "2025-276AL", "EPOCH": "2025-12-24T22:13:24.198528", "MEAN_MOTION": 15.18439341, "ECCENTRICITY": 0.0003628, "INCLINATION": 97.4418, "RA_OF_ASC_NODE": 70.5094, "ARG_OF_PERICENTER": 181.5083, "MEAN_ANOMALY": 178.6141, "EPHEMERIS_TYPE": 0, "CLASSIFICATION_TYPE": "U", "NORAD_CAT_ID": 66700, "ELEMENT_SET_NO": 999, "REV_AT_EPOCH": 397, "BSTAR": 0.0057013471, "MEAN_MOTION_DOT": 0.00119169, "MEAN_MOTION_DDOT": 0}, "tle": {"line1": "1 66700U 25276AL  25358.92597452  .00119169  00000+0  57013-2 0  9991", "line2": "2 66700  97.4418  70.5094 0003628 181.5083 178.6141 15.18439341  3970"}}, "geometry": {"type": "Point", "coordinates": [-111.84922831652683, -19.946003445572973]}}, {"type": "Feature", "properties": {"norad_id": 66701, "name": "IRIDE FM7", "group": "last-30-days", "lat": 58.512708009356054, "lon": -96.84502881604992, "alt_km": 508.85557044608686, "timestamp": "2025-12-25T07:00:32.763143+00:00", "meta": {"OBJECT_NAME": "IRIDE FM7", "OBJECT_ID": "2025-276AM", "EPOCH": "2025-12-24T19:24:05.357376", "MEAN_MOTION": 15.17502301, "ECCENTRICITY": 0.000333, "INCLINATION": 97.4409, "RA_OF_ASC_NODE": 70.3593, "ARG_OF_PERICENTER": 246.5595, "MEAN_ANOMALY": 113.5289, "EPHEMERIS_TYPE": 0, "CLASSIFICATION_TYPE": "U", "NORAD_CAT_ID": 66701, "ELEMENT_SET_NO": 999, "REV_AT_EPOCH": 395, "BSTAR": 0.003840962, "MEAN_MOTION_DOT": 0.00077692, "MEAN_MOTION_DDOT": 0}, "tle": {"line1": "1 66701U 25276AM  25358.80839534  .00077692  00000+0  38410-2 0  9993", "line2": "2 66701  97.4409  70.3593 0003330 246.5595 113.5289 15.17502301  3958"}}, "geometry": {"type": "Point", "coordinates": [-96.84502881604992, 58.512708009356054]}}, {"type": "Feature", "properties": {"norad_id": 66702, "name": "IRIDE FM8", "group": "last-30-days", "lat": 57.7954307750526, "lon": -97.1983874008702, "alt_km": 509.3626662381903, "timestamp": "2025-12-25T07:00:32.763153+00:00", "meta": {"OBJECT_NAME": "IRIDE FM8", "OBJECT_ID": "2025-276AN", "EPOCH": "2025-12-24T20:58:48.318240", "MEAN_MOTION": 15.17426936, "ECCENTRICITY": 0.00028447, "INCLINATION": 97.4395, "RA_OF_ASC_NODE": 70.4175, "ARG_OF_PERICENTER": 254.2277, "MEAN_ANOMALY": 105.8643, "EPHEMERIS_TYPE": 0, "CLASSIFICATION_TYPE": "U", "NORAD_CAT_ID": 66702, "ELEMENT_SET_NO": 999, "REV_AT_EPOCH": 396, "BSTAR": 0.00053304721, "MEAN_MOTION_DOT": 0.00010603, "MEAN_MOTION_DDOT": 0}, "tle": {"line1": "1 66702U 25276AN  25358.87417035  .00010603  00000+0  53305-3 0  9999", "line2": "2 66702  97.4395  70.4175 0002844 254.2277 105.8643 15.17426936  3960"}}, "geometry": {"type": "Point", "coordinates": [-97.1983874008702, 57.7954307750526]}}, {"type": "Feature", "properties": {"norad_id": 66703, "name": "PELICAN-6", "group": "last-30-days", "lat": 51.525562402205416, "lon": -99.7012241847411, "alt_km": 509.1685210218802, "timestamp": "2025-12-25T07:00:32.763163+00:00", "meta": {"OBJECT_NAME": "PELICAN-6", "OBJECT_ID": "2025-276AP", "EPOCH": "2025-12-24T22:00:03.000096", "MEAN_MOTION": 15.1736348, "ECCENTRICITY": 9.988e-05, "INCLINATION": 97.4406, "RA_OF_ASC_NODE": 70.4649, "ARG_OF_PERICENTER": 220.8328, "MEAN_ANOMALY": 17.9636, "EPHEMERIS_TYPE": 0, "CLASSIFICATION_TYPE": "U", "NORAD_CAT_ID": 66703, "ELEMENT_SET_NO": 999, "REV_AT_EPOCH": 511, "BSTAR": -0.0013657413, "MEAN_MOTION_DOT": -0.00027209, "MEAN_MOTION_DDOT": 0}, "tle": {"line1": "1 66703U 25276AP  25358.91670139 -.00027209  00000+0 -13657-2 0  9998", "line2": "2 66703  97.4406  70.4649 0000998 220.8328  17.9636 15.17363480  5112"}}, "geometry": {"type": "Point", "coordinates": [-99.7012241847411, 51.525562402205416]}}, {"type": "Feature", "properties": {"norad_id": 66704, "name": "FLOCK 4H-1", "group": "last-30-days", "lat": -10.401153725323852, "lon": -110.5245924491772, "alt_km": 514.4139631994449, "timestamp": "2025-12-25T07:00:32.763173+00:00", "meta": {"OBJECT_NAME": "FLOCK 4H-1", "OBJECT_ID": "2025-276AQ", "EPOCH": "2025-12-24T20:40:54.274656", "MEAN_MOTION": 15.18117804, "ECCENTRICITY": 0.00022709, "INCLINATION": 97.4379, "RA_OF_ASC_NODE": 70.4265, "ARG_OF_PERICENTER": 168.0019, "MEAN_ANOMALY": 192.1269, "EPHEMERIS_TYPE": 0, "CLASSIFICATION_TYPE": "U", "NORAD_CAT_ID": 66704, "ELEMENT_SET_NO": 999, "REV_AT_EPOCH": 396, "BSTAR": 0.00033274446, "MEAN_MOTION_DOT": 6.723e-05, "MEAN_MOTION_DDOT": 0}, "tle": {"line1": "1 66704U 25276AQ  25358.86173929  .00006723  00000+0  33274-3 0  9992", "line2": "2 66704  97.4379  70.4265 0002270 168.0019 192.1269 15.18117804  3968"}}, "geometry": {"type": "Point", "coordinates": [-110.5245924491772, -10.401153725323852]}}, {"type": "Feature", "properties": {"norad_id": 66705, "name": "FLOCK 4H-2", "group": "last-30-days", "lat": -13.354377589963553, "lon": -110.92667865358196, "alt_km": 515.248561951068, "timestamp": "2025-12-25T07:00:32.763185+00:00", "meta": {"OBJECT_NAME": "FLOCK 4H-2", "OBJECT_ID": "2025-276AR", "EPOCH": "2025-12-24T20:40:08.432544", "MEAN_MOTION": 15.18167528, "ECCENTRICITY": 0.00014525, "INCLINATION": 97.4374, "RA_OF_ASC_NODE": 70.4269, "ARG_OF_PERICENTER": 153.0633, "MEAN_ANOMALY": 207.0676, "EPHEMERIS_TYPE": 0, "CLASSIFICATION_TYPE": "U", "NORAD_CAT_ID": 66705, "ELEMENT_SET_NO": 999, "REV_AT_EPOCH": 396, "BSTAR": 0.00052217434, "MEAN_MOTION_DOT": 0.00010609, "MEAN_MOTION_DDOT": 0}, "tle": {"line1": "1 66705U 25276AR  25358.86120871  .00010609  00000+0  52217-3 0  9997", "line2": "2 66705  97.4374  70.4269 0001452 153.0633 207.0676 15.18167528  3961"}}, "geometry": {"type": "Point", "coordinates": [-110.92667865358196, -13.354377589963553]}}, {"type": "Feature", "properties": {"norad_id": 66706, "name": "FLOCK 4H-3", "group": "last-30-days", "lat": 46.41568589295203, "lon": -101.2538116844671, "alt_km": 509.81025535207755, "timestamp": "2025-12-25T07:00:32.763196+00:00", "meta": {"OBJECT_NAME": "FLOCK 4H-3", "OBJECT_ID": "2025-276AS", "EPOCH": "2025-12-24T20:55:45.885504", "MEAN_MOTION": 15.17499125, "ECCENTRICITY": 0.00029817, "INCLINATION": 97.444, "RA_OF_ASC_NODE": 70.4374, "ARG_OF_PERICENTER": 236.5678, "MEAN_ANOMALY": 123.5271, "EPHEMERIS_TYPE": 0, "CLASSIFICATION_TYPE": "U", "NORAD_CAT_ID": 66706, "ELEMENT_SET_NO": 999, "REV_AT_EPOCH": 396, "BSTAR": 0.00031072251, "MEAN_MOTION_DOT": 6.162e-05, "MEAN_MOTION_DDOT": 0}, "tle": {"line1": "1 66706U 25276AS  25358.87205886  .00006162  00000+0  31072-3 0  9994", "line2": "2 66706  97.4440  70.4374 0002981 236.5678 123.5271 15.17499125  3960"}}, "geometry": {"type": "Point", "coordinates": [-101.2538116844671, 46.41568589295203]}}]}